GLOBALSTAR M094 [+]     
1 39074U 13005C   24037.77196024 -.00000059  00000+0  24912-3 0  9999
2 39074  51.9937 253.5560 0000681  78.5292 281.5651 12.62262811509680
GLOBALSTAR M078 [+]     
1 39076U 13005E   24037.36321873 -.00000098  00000+0  29917-4 0  9992
2 39076  51.9893  28.1122 0001162 143.5595 216.5351 12.62259612507179
GLOBALSTAR M087 [+]     
1 52888U 22064A   24037.89507178 -.00000067  00000+0  11595-3 0  9993
2 52888  51.9770 306.1901 0010004  33.8622 326.2916 13.37564468 79957
